     2.100          NAVIGATION                              RINEX VERSION / TYPE
fic2rin                                 03/12/2012 00:05:57 PGM / RUN BY / DATE
                                                            END OF HEADER
25 12  3 11 12  0  0.0  .321599654853D-04  .227373675443D-12  .000000000000D+00
     .240000000000D+02  .232500000000D+02  .431196532495D-08  .185114400074D+01
     .122748315334D-05  .133055297192D-02  .987760722637D-05  .515375039482D+04
     .432000000000D+05 -.149011611938D-07 -.195449045722D+01  .633299350739D-07
     .967455595872D+00  .189093750000D+03  .598598826798D+00 -.798318967475D-08
     .708600944645D-09  .100000000000D+01  .167900000000D+04  .000000000000D+00
     .240000000000D+01  .000000000000D+00  .558793544769D-08  .240000000000D+02
     .360060000000D+05  .400000000000D+01
26 12  3 11 12  0  0.0 -.138723757118D-03 -.576392267249D-10  .000000000000D+00
     .166000000000D+03 -.383750000000D+02  .425839166482D-08 -.165236631432D+01
    -.166147947311D-05  .209051404381D-01  .182911753654D-05  .515365369034D+04
     .432000000000D+05  .383704900742D-06  .232961470381D+01  .106170773506D-06
     .984001856198D+00  .351437500000D+03  .117688342832D+01 -.814033907780D-08
    -.227866634417D-09  .100000000000D+01  .167900000000D+04  .000000000000D+00
     .240000000000D+01  .000000000000D+00 -.605359673500D-08  .166000000000D+03
     .360060000000D+05  .400000000000D+01
27 12  3 11 12  0  0.0  .365641433746D-03  .397903932026D-11  .000000000000D+00
     .173000000000D+03 -.969687500000D+02  .377122851538D-08 -.704882519952D+00
    -.515952706337D-05  .218556745676D-01  .112615525723D-04  .515377058029D+04
     .432000000000D+05 -.333413481712D-06 -.302992644302D+01  .149011611938D-07
     .982263202931D+00  .178843750000D+03 -.111269592997D+01 -.809605151876D-08
    -.710743891050D-10  .100000000000D+01  .167900000000D+04  .000000000000D+00
     .340000000000D+01  .000000000000D+00 -.419095158577D-08  .173000000000D+03
     .360060000000D+05  .400000000000D+01
28 12  3 11 12  0  0.0  .121443532407D-03  .397903932026D-11  .000000000000D+00
     .750000000000D+02  .353125000000D+02  .426767776591D-08  .310675861674D+00
     .182352960110D-05  .178927254165D-01  .935979187489D-05  .515370576286D+04
     .432000000000D+05 -.372529029846D-06 -.189635535964D+01  .540167093277D-07
     .977796065542D+00  .212375000000D+03 -.183478095189D+01 -.817069748520D-08
     .554665961207D-09  .100000000000D+01  .167900000000D+04  .000000000000D+00
     .240000000000D+01  .000000000000D+00 -.107102096081D-07  .750000000000D+02
     .360060000000D+05  .400000000000D+01
29 12  3 11 12  0  0.0  .292697921395D-03  .363797880709D-11  .000000000000D+00
     .340000000000D+02 -.312187500000D+02  .504020994498D-08  .252218655131D+01
    -.180117785931D-05  .228639435954D-02  .502541661263D-05  .515360949707D+04
     .432000000000D+05  .596046447754D-07 -.853207614310D+00  .372529029846D-08
     .962989175313D+00  .285187500000D+03 -.117988176962D+01 -.831748931396D-08
    -.117147736816D-09  .100000000000D+01  .167900000000D+04  .000000000000D+00
     .240000000000D+01  .000000000000D+00 -.931322574615D-08  .340000000000D+02
     .360060000000D+05  .400000000000D+01
31 12  3 11 12  0  0.0  .218208879232D-03  .443378667114D-11  .000000000000D+00
     .690000000000D+02 -.984687500000D+02  .376122809882D-08 -.310970400626D+01
    -.499561429024D-05  .796061567962D-02  .104960054159D-04  .515361279869D+04
     .432000000000D+05  .819563865662D-07 -.297441720732D+01  .130385160446D-07
     .981090151829D+00  .189187500000D+03 -.886574468677D+00 -.762246036321D-08
    -.229652423088D-09  .100000000000D+01  .167900000000D+04  .000000000000D+00
     .240000000000D+01  .000000000000D+00 -.130385160446D-07  .690000000000D+02
     .360060000000D+05  .400000000000D+01
32 12  3 11 12  0  0.0 -.418847892433D-03 -.500222085975D-11  .000000000000D+00
     .550000000000D+02  .120656250000D+03  .462483550011D-08 -.249155483441D+01
     .627338886261D-05  .118624106981D-01  .762380659580D-05  .515373156166D+04
     .432000000000D+05 -.167638063431D-06  .128521100675D+01  .171363353729D-06
     .952052851794D+00  .227312500000D+03 -.604394287951D+00 -.810355183117D-08
     .235366946835D-09  .100000000000D+01  .167900000000D+04  .000000000000D+00
     .240000000000D+01  .000000000000D+00 -.279396772385D-08  .550000000000D+02
     .360060000000D+05  .400000000000D+01
 2 12  3 11 11 59 44.0  .382368452847D-03  .147792889038D-11  .000000000000D+00
     .400000000000D+01 -.181875000000D+02  .498842207352D-08 -.160700982810D+01
    -.998377799988D-06  .110088977963D-01  .115577131510D-04  .515366178131D+04
     .431840000000D+05  .141561031342D-06  .133355950422D+00 -.968575477600D-07
     .939196846210D+00  .144468750000D+03 -.284180574176D+01 -.810890919719D-08
    -.303226916332D-09  .100000000000D+01  .167900000000D+04  .000000000000D+00
     .240000000000D+01  .000000000000D+00 -.172294676304D-07  .400000000000D+01
     .383160000000D+05  .400000000000D+01
13 12  3 11 11 59 44.0  .220114830881D-03 -.216004991671D-11  .000000000000D+00
     .900000000000D+01 -.267812500000D+02  .422553315327D-08 -.715582109679D+00
    -.147521495819D-05  .486204959452D-02  .282190740108D-05  .515370208168D+04
     .431840000000D+05 -.447034835815D-07  .233538630185D+01  .186264514923D-08
     .986448250215D+00  .338843750000D+03  .194287965093D+01 -.827177312398D-08
    -.226438003480D-09  .100000000000D+01  .167900000000D+04  .000000000000D+00
     .240000000000D+01  .000000000000D+00 -.111758708954D-07  .900000000000D+01
     .390960000000D+05  .400000000000D+01
 2 12  3 11 13 59 44.0  .382379163057D-03  .147792889038D-11  .000000000000D+00
     .500000000000D+01 -.179062500000D+02  .506771109051D-08 -.556852215290D+00
    -.907108187675D-06  .110094323754D-01  .111106783152D-04  .515366159248D+04
     .503840000000D+05  .203028321266D-06  .133297863797D+00  .111758708954D-06
     .939193854542D+00  .154281250000D+03 -.284177107499D+01 -.826927301984D-08
    -.396087927223D-09  .100000000000D+01  .167900000000D+04  .000000000000D+00
     .240000000000D+01  .000000000000D+00 -.172294676304D-07  .500000000000D+01
     .432060000000D+05  .400000000000D+01
13 12  3 11 13 59 44.0  .220098998398D-03 -.216004991671D-11  .000000000000D+00
     .100000000000D+02 -.204375000000D+02  .424696261733D-08  .334630681477D+00
    -.120513141155D-05  .486145971809D-02  .272132456303D-05  .515370107269D+04
     .503840000000D+05 -.186264514923D-07  .233532692493D+01 -.391155481339D-07
     .986446453751D+00  .340500000000D+03  .194282806698D+01 -.828034490960D-08
    -.266082511976D-09  .100000000000D+01  .167900000000D+04  .000000000000D+00
     .240000000000D+01  .000000000000D+00 -.111758708954D-07  .100000000000D+02
     .432060000000D+05  .400000000000D+01
 1 12  3 11 14  0  0.0  .230344012380D-03  .750333128963D-11  .000000000000D+00
     .200000000000D+02 -.225312500000D+02  .448768693017D-08 -.199147480371D+01
    -.119395554066D-05  .570694799535D-03  .119283795357D-04  .515365935707D+04
     .504000000000D+05 -.409781932831D-07  .145358877272D+00 -.707805156708D-07
     .960633600714D+00  .150156250000D+03  .711448520538D+00 -.791318675885D-08
    -.435375277985D-09  .100000000000D+01  .167900000000D+04  .000000000000D+00
     .240000000000D+01  .000000000000D+00  .838190317154D-08  .200000000000D+02
     .432060000000D+05  .400000000000D+01
 3 12  3 11 14  0  0.0  .209119170904D-04  .511590769747D-11  .000000000000D+00
     .104000000000D+03 -.918750000000D+01  .585952978722D-08 -.410154150624D+00
    -.350177288055D-06  .150729668094D-01  .464543700218D-05  .515369768524D+04
     .504000000000D+05 -.949949026108D-07 -.102920199743D+01  .158324837685D-06
     .930489446620D+00  .277312500000D+03  .117494558266D+01 -.905644866601D-08
     .150006248362D-09  .100000000000D+01  .167900000000D+04  .000000000000D+00
     .340000000000D+01  .000000000000D+00 -.419095158577D-08  .104000000000D+03
     .432060000000D+05  .400000000000D+01
 4 12  3 11 14  0  0.0  .119631644338D-03  .114823706099D-10  .000000000000D+00
     .700000000000D+02 -.224375000000D+02  .494913472276D-08  .253282108653D+01
    -.126473605633D-05  .100251690019D-01  .115949660540D-04  .515357407951D+04
     .504000000000D+05 -.875443220139D-07  .150288712242D+00 -.152736902237D-06
     .938253751201D+00  .143468750000D+03  .839328012261D+00 -.801747681723D-08
    -.401445293236D-09  .100000000000D+01  .167900000000D+04  .000000000000D+00
     .240000000000D+01  .000000000000D+00 -.605359673500D-08  .700000000000D+02
     .432060000000D+05  .400000000000D+01
 5 12  3 11 14  0  0.0 -.292535871267D-03 -.432009983342D-11  .000000000000D+00
     .290000000000D+02  .119625000000D+03  .482841540860D-08  .138756113701D+01
     .644847750664D-05  .270699313842D-02  .799074769020D-05  .515362202835D+04
     .504000000000D+05  .000000000000D+00  .119613157692D+01  .558793544769D-07
     .951454136478D+00  .220906250000D+03  .289186908790D+00 -.826212986516D-08
     .201794119821D-09  .100000000000D+01  .167900000000D+04  .000000000000D+00
     .240000000000D+01  .000000000000D+00 -.102445483208D-07  .290000000000D+02
     .432060000000D+05  .400000000000D+01
 6 12  3 11 14  0  0.0  .318726524711D-04  .227373675443D-12  .000000000000D+00
     .790000000000D+02 -.191250000000D+02  .559166148657D-08  .151291068600D+01
    -.103935599327D-05  .711904780474D-02  .421702861786D-05  .515368841362D+04
     .504000000000D+05  .117346644402D-06 -.953168572600D+00  .484287738800D-07
     .937468411425D+00  .284468750000D+03 -.595768966843D+00 -.862357349216D-08
    -.342871424828D-10  .100000000000D+01  .167900000000D+04  .000000000000D+00
     .240000000000D+01  .000000000000D+00 -.512227416039D-08  .790000000000D+02
     .432060000000D+05  .400000000000D+01
